JILIN-01-05             
1 43023U 17074B   17346.46331110  .00000711  00000-0  47355-4 0  9998
2 43023  97.5369  81.3099 0011975 185.2421 238.6526 15.10186243  3207
